IRIDIUM 159             
1 43578U 18061K   24148.56674274  .00000389  00000+0  13182-3 0  9990
2 43578  86.3988  10.4024 0002484  84.5283 275.6196 14.34216522305790
IRIDIUM 180             
1 43922U 19002A   24148.49646821  .00000343  00000+0  11532-3 0  9995
2 43922  86.3939 307.3164 0002210  89.2931 270.8518 14.34218868281390
IRIDIUM 176             
1 43923U 19002B   24148.86348929  .00001437  00000+0  22404-3 0  9990
2 43923  86.6068 307.1858 0002409  88.2523 271.8970 14.72239108288854
IRIDIUM 168             
1 43924U 19002C   24148.49012677  .00000233  00000+0  76016-4 0  9990
2 43924  86.3943 307.3752 0002248  94.3906 265.7546 14.34217342281378
IRIDIUM 173             
1 43925U 19002D   24148.47744255  .00000419  00000+0  14266-3 0  9997
2 43925  86.3939 307.3002 0002235  89.9099 270.2353 14.34217068281351
IRIDIUM 169             
1 43926U 19002E   24148.81500009  .00000235  00000+0  70385-4 0  9994
2 43926  86.4219 338.7841 0001177  20.6566 339.4680 14.38586535282341
IRIDIUM 172             
1 43927U 19002F   24148.54086822  .00000178  00000+0  56451-4 0  9991
2 43927  86.3939 307.2793 0002279  91.3956 268.7500 14.34218001281372
IRIDIUM 175             
1 43928U 19002G   24148.44994627  .00001617  00000+0  25259-3 0  9992
2 43928  86.1494 281.6634 0001956  89.0436 271.1004 14.72233806288785
